OBJECT_NAME,OBJECT_ID,EPOCH,MEAN_MOTION,ECCENTRICITY,INCLINATION,RA_OF_ASC_NODE,ARG_OF_PERICENTER,MEAN_ANOMALY,EPHEMERIS_TYPE,CLASSIFICATION_TYPE,NORAD_CAT_ID,ELEMENT_SET_NO,REV_AT_EPOCH,BSTAR,MEAN_MOTION_DOT,MEAN_MOTION_DDOT
SAR-LUPE 2,2007-030A,2026-06-16T19:55:32.034432,15.50003422,.0005092,98.1045,272.2178,145.8607,214.2971,0,U,31797,999,5688,.15621E-3,.8647E-4,0
SAPPHIRE,2013-009C,2026-06-16T19:31:07.810176,14.35240494,.0010067,98.4260,347.2779,247.8477,112.1640,0,U,39088,999,69652,.44345E-4,.84E-6,0
PRAETORIAN SDA_602,2025-203A,2026-06-16T19:22:22.442016,13.84342739,.000575,81.3031,11.1207,185.0554,175.0546,0,U,65565,999,3864,.39022E-4,.56E-6,0
PRAETORIAN SDA_603,2025-203B,2026-06-16T20:00:37.931904,13.83905425,.0009301,81.3038,11.0127,188.3316,171.7688,0,U,65566,999,3865,.1149E-3,.139E-5,0
PRAETORIAN SDA_604,2025-203C,2026-06-16T20:28:42.456288,13.83047383,.0005236,81.3053,11.4062,192.5474,167.5553,0,U,65567,999,3863,.30972E-4,.46E-6,0
PRAETORIAN SDA_605,2025-203D,2026-06-16T19:38:55.297248,13.83434111,.0008062,81.3018,11.1016,183.9712,176.1381,0,U,65568,999,3864,.2722E-4,.42E-6,0
PRAETORIAN SDA_606,2025-203E,2026-06-16T19:13:46.710912,13.83407314,.0005711,81.3055,11.3394,181.9273,178.1862,0,U,65569,999,3863,.37487E-4,.53E-6,0
PRAETORIAN SDA_607,2025-203F,2026-06-16T15:57:32.152608,13.84285447,.0008637,81.3037,11.1294,188.6959,171.4050,0,U,65570,999,3863,.15623E-3,.186E-5,0
PRAETORIAN SDA_608,2025-203G,2026-06-16T20:37:05.153088,13.83816774,.0005748,81.3007,11.1112,191.7065,168.3959,0,U,65571,999,3864,.3504E-4,.51E-6,0
PRAETORIAN SDA_609,2025-203H,2026-06-16T20:44:17.128032,13.84212167,.00067,81.3049,11.0898,186.4149,173.6923,0,U,65572,999,3865,.13933E-3,.167E-5,0
PRAETORIAN SDA_610,2025-203J,2026-06-16T20:07:56.734176,13.83851812,.0006412,81.3007,11.0879,189.4405,170.6632,0,U,65573,999,3864,.25451E-4,.4E-6,0
PRAETORIAN SDA_611,2025-203K,2026-06-16T20:08:52.412064,13.83308989,.0005262,81.3008,11.2525,195.8037,164.2955,0,U,65574,999,3863,.1016E-4,.23E-6,0
PRAETORIAN SDA_612,2025-203L,2026-06-16T14:42:28.080000,13.85038991,.0009017,81.3030,11.0506,188.3847,171.7161,0,U,65575,999,3863,.20338E-3,.242E-5,0
PRAETORIAN SDA_613,2025-203M,2026-06-16T20:18:23.465088,13.82764925,.0005533,81.2998,11.2433,184.8255,175.2849,0,U,65576,999,3863,.23649E-4,.38E-6,0
PRAETORIAN SDA_614,2025-203N,2026-06-16T19:38:51.504288,13.84777988,.000698,81.3014,10.9369,184.6599,175.4494,0,U,65577,999,3866,.17544E-4,.32E-6,0
PRAETORIAN SDA_615,2025-203P,2026-06-16T20:49:30.976032,13.84436741,.0008883,81.3024,10.8552,185.6908,174.4149,0,U,65578,999,3866,.11451E-3,.14E-5,0
PRAETORIAN SDA_616,2025-203Q,2026-06-16T20:07:43.592736,13.83267264,.0005218,81.3064,11.3986,193.9328,166.1685,0,U,65579,999,3863,.16803E-3,.196E-5,0
PRAETORIAN SDA_617,2025-203R,2026-06-16T20:38:47.605344,13.83149935,.0007235,81.3037,11.2097,185.0237,175.0847,0,U,65580,999,3864,.90047E-5,.22E-6,0
PRAETORIAN SDA_618,2025-203S,2026-06-16T20:00:42.391872,13.84669297,.0009561,81.3023,10.8165,188.8018,171.2973,0,U,65581,999,3866,.17935E-3,.213E-5,0
PRAETORIAN SDA_619,2025-203T,2026-06-16T19:08:02.196096,13.83805433,.0008033,81.3045,11.1468,186.6036,173.5016,0,U,65582,999,3927,.69789E-4,.89E-6,0
PRAETORIAN SDA_620,2025-203U,2026-06-16T19:48:15.867360,13.83618188,.0007501,81.3031,11.1414,181.9271,178.1858,0,U,65583,999,3864,.13147E-3,.157E-5,0
PRAETORIAN SDA_621,2025-203V,2026-06-16T19:10:35.209632,13.83801159,.0007324,81.3021,11.0840,179.7214,180.3948,0,U,65584,999,3864,.34131E-4,.5E-6,0
PRAETORIAN SDA_601,2025-203W,2026-06-16T20:12:12.318336,13.83167576,.0005193,81.3037,11.3402,196.4408,163.6580,0,U,65585,999,3863,-.32066E-4,-.23E-6,0
