SAR-LUPE 2              
1 31797U 07030A   26167.83023188  .00008647  00000+0  15621-3 0  9994
2 31797  98.1045 272.2178 0005092 145.8607 214.2971 15.50003422 56887
SAPPHIRE                
1 39088U 13009C   26167.81328484  .00000084  00000+0  44345-4 0  9996
2 39088  98.4260 347.2779 0010067 247.8477 112.1640 14.35240494696520
PRAETORIAN SDA_602      
1 65565U 25203A   26167.80720419  .00000056  00000+0  39022-4 0  9992
2 65565  81.3031  11.1207 0005750 185.0554 175.0546 13.84342739 38645
PRAETORIAN SDA_603      
1 65566U 25203B   26167.83377236  .00000139  00000+0  11490-3 0  9991
2 65566  81.3038  11.0127 0009301 188.3316 171.7688 13.83905425 38658
PRAETORIAN SDA_604      
1 65567U 25203C   26167.85326917  .00000046  00000+0  30972-4 0  9998
2 65567  81.3053  11.4062 0005236 192.5474 167.5553 13.83047383 38635
PRAETORIAN SDA_605      
1 65568U 25203D   26167.81869557  .00000042  00000+0  27220-4 0  9995
2 65568  81.3018  11.1016 0008062 183.9712 176.1381 13.83434111 38647
PRAETORIAN SDA_606      
1 65569U 25203E   26167.80123508  .00000053  00000+0  37487-4 0  9992
2 65569  81.3055  11.3394 0005711 181.9273 178.1862 13.83407314 38638
PRAETORIAN SDA_607      
1 65570U 25203F   26167.66495547  .00000186  00000+0  15623-3 0  9997
2 65570  81.3037  11.1294 0008637 188.6959 171.4050 13.84285447 38639
PRAETORIAN SDA_608      
1 65571U 25203G   26167.85908742  .00000051  00000+0  35040-4 0  9992
2 65571  81.3007  11.1112 0005748 191.7065 168.3959 13.83816774 38645
PRAETORIAN SDA_609      
1 65572U 25203H   26167.86408713  .00000167  00000+0  13933-3 0  9991
2 65572  81.3049  11.0898 0006700 186.4149 173.6923 13.84212167 38653
PRAETORIAN SDA_610      
1 65573U 25203J   26167.83885109  .00000040  00000+0  25451-4 0  9996
2 65573  81.3007  11.0879 0006412 189.4405 170.6632 13.83851812 38643
PRAETORIAN SDA_611      
1 65574U 25203K   26167.83949551  .00000023  00000+0  10160-4 0  9991
2 65574  81.3008  11.2525 0005262 195.8037 164.2955 13.83308989 38637
PRAETORIAN SDA_612      
1 65575U 25203L   26167.61282500  .00000242  00000+0  20338-3 0  9992
2 65575  81.3030  11.0506 0009017 188.3847 171.7161 13.85038991 38635
PRAETORIAN SDA_613      
1 65576U 25203M   26167.84610492  .00000038  00000+0  23649-4 0  9995
2 65576  81.2998  11.2433 0005533 184.8255 175.2849 13.82764925 38634
PRAETORIAN SDA_614      
1 65577U 25203N   26167.81865167  .00000032  00000+0  17544-4 0  9995
2 65577  81.3014  10.9369 0006980 184.6599 175.4494 13.84777988 38661
PRAETORIAN SDA_615      
1 65578U 25203P   26167.86771963  .00000140  00000+0  11451-3 0  9991
2 65578  81.3024  10.8552 0008883 185.6908 174.4149 13.84436741 38660
PRAETORIAN SDA_616      
1 65579U 25203Q   26167.83869899  .00000196  00000+0  16803-3 0  9992
2 65579  81.3064  11.3986 0005218 193.9328 166.1685 13.83267264 38630
PRAETORIAN SDA_617      
1 65580U 25203R   26167.86027321  .00000022  00000+0  90047-5 0  9995
2 65580  81.3037  11.2097 0007235 185.0237 175.0847 13.83149935 38640
PRAETORIAN SDA_618      
1 65581U 25203S   26167.83382398  .00000213  00000+0  17935-3 0  9996
2 65581  81.3023  10.8165 0009561 188.8018 171.2973 13.84669297 38668
PRAETORIAN SDA_619      
1 65582U 25203T   26167.79724764  .00000089  00000+0  69789-4 0  9995
2 65582  81.3045  11.1468 0008033 186.6036 173.5016 13.83805433 39276
PRAETORIAN SDA_620      
1 65583U 25203U   26167.82518365  .00000157  00000+0  13147-3 0  9990
2 65583  81.3031  11.1414 0007501 181.9271 178.1858 13.83618188 38645
PRAETORIAN SDA_621      
1 65584U 25203V   26167.79901863  .00000050  00000+0  34131-4 0  9995
2 65584  81.3021  11.0840 0007324 179.7214 180.3948 13.83801159 38649
PRAETORIAN SDA_601      
1 65585U 25203W   26167.84180924 -.00000023  00000+0 -32066-4 0  9996
2 65585  81.3037  11.3402 0005193 196.4408 163.6580 13.83167576 38630
